{"type": "FeatureCollection", "features": [ {"type": "Feature", "properties": {"norad_id": 44873, "name": "CSG-1", "group": "resource", "lat": -63.90284211254654, "lon": 173.0893559801111, "alt_km": 630.5155525179798, "timestamp": "2025-12-01T03:58:49.208307+00:00", "meta": {"OBJECT_NAME": "CSG-1", "OBJECT_ID": "2019-092A", "EPOCH": "2025-11-30T20:10:19.951680", "MEAN_MOTION": 14.82168751, "ECCENTRICITY": 0.0001381, "INCLINATION": 97.8806, "RA_OF_ASC_NODE": 156.3435, "ARG_OF_PERICENTER": 83.6633, "MEAN_ANOMALY": 276.4737, "EPHEMERIS_TYPE": 0, "CLASSIFICATION_TYPE": "U", "NORAD_CAT_ID": 44873, "ELEMENT_SET_NO": 999, "REV_AT_EPOCH": 32209, "BSTAR": 9.0375e-05, "MEAN_MOTION_DOT": 6.68e-06, "MEAN_MOTION_DDOT": 0, "GROUP": "resource"}, "tle": {"line1": "1 44873U 19092A   25334.84050870  .00000668  00000+0  90375-4 0  9993", "line2": "2 44873  97.8806 156.3435 0001381  83.6633 276.4737 14.82168751322090"}}, "geometry": {"type": "Point", "coordinates": [173.0893559801111, -63.90284211254654]}}, {"type": "Feature", "properties": {"norad_id": 46277, "name": "NEMO-HD", "group": "resource", "lat": -21.788145092278864, "lon": -148.49269779615207, "alt_km": 452.78105160803625, "timestamp": "2025-12-01T03:58:49.208359+00:00", "meta": {"OBJECT_NAME": "NEMO-HD", "OBJECT_ID": "2020-061F", "EPOCH": "2025-11-30T20:52:07.225248", "MEAN_MOTION": 15.39957115, "ECCENTRICITY": 0.0002448, "INCLINATION": 97.2236, "RA_OF_ASC_NODE": 34.121, "ARG_OF_PERICENTER": 71.3144, "MEAN_ANOMALY": 288.8368, "EPHEMERIS_TYPE": 0, "CLASSIFICATION_TYPE": "U", "NORAD_CAT_ID": 46277, "ELEMENT_SET_NO": 999, "REV_AT_EPOCH": 29141, "BSTAR": 0.00030385, "MEAN_MOTION_DOT": 0.0001203, "MEAN_MOTION_DDOT": 0, "GROUP": "resource"}, "tle": {"line1": "1 46277U 20061F   25334.86952807  .00012030  00000+0  30385-3 0  9994", "line2": "2 46277  97.2236  34.1210 0002448  71.3144 288.8368 15.39957115291412"}}, "geometry": {"type": "Point", "coordinates": [-148.49269779615207, -21.788145092278864]}}, {"type": "Feature", "properties": {"norad_id": 46984, "name": "SENTINEL-6A", "group": "resource", "lat": 11.94576004015377, "lon": -168.2543404470308, "alt_km": 1339.4334593944332, "timestamp": "2025-12-01T03:58:49.208441+00:00", "meta": {"OBJECT_NAME": "SENTINEL-6A", "OBJECT_ID": "2020-086A", "EPOCH": "2025-11-30T20:25:00.868800", "MEAN_MOTION": 12.80929956, "ECCENTRICITY": 0.0007734, "INCLINATION": 66.0387, "RA_OF_ASC_NODE": 187.0019, "ARG_OF_PERICENTER": 269.1198, "MEAN_ANOMALY": 90.8931, "EPHEMERIS_TYPE": 0, "CLASSIFICATION_TYPE": "U", "NORAD_CAT_ID": 46984, "ELEMENT_SET_NO": 999, "REV_AT_EPOCH": 23492, "BSTAR": 0.00013344, "MEAN_MOTION_DOT": -3e-07, "MEAN_MOTION_DDOT": 0, "GROUP": "resource"}, "tle": {"line1": "1 46984U 20086A   25334.85070450 -.00000030  00000+0  13344-3 0  9994", "line2": "2 46984  66.0387 187.0019 0007734 269.1198  90.8931 12.80929956234927"}}, "geometry": {"type": "Point", "coordinates": [-168.2543404470308, 11.94576004015377]}}, {"type": "Feature", "properties": {"norad_id": 48079, "name": "GAOFEN-12 02", "group": "resource", "lat": -75.12088391072274, "lon": 117.33751958729562, "alt_km": 636.1013966506816, "timestamp": "2025-12-01T03:58:49.208490+00:00", "meta": {"OBJECT_NAME": "GAOFEN-12 02", "OBJECT_ID": "2021-026A", "EPOCH": "2025-11-30T21:57:21.229920", "MEAN_MOTION": 14.80651713, "ECCENTRICITY": 0.0003151, "INCLINATION": 97.9848, "RA_OF_ASC_NODE": 328.9787, "ARG_OF_PERICENTER": 124.9443, "MEAN_ANOMALY": 235.2065, "EPHEMERIS_TYPE": 0, "CLASSIFICATION_TYPE": "U", "NORAD_CAT_ID": 48079, "ELEMENT_SET_NO": 999, "REV_AT_EPOCH": 25242, "BSTAR": 8.0672e-05, "MEAN_MOTION_DOT": 5.67e-06, "MEAN_MOTION_DDOT": 0, "GROUP": "resource"}, "tle": {"line1": "1 48079U 21026A   25334.91482905  .00000567  00000+0  80672-4 0  9998", "line2": "2 48079  97.9848 328.9787 0003151 124.9443 235.2065 14.80651713252420"}}, "geometry": {"type": "Point", "coordinates": [117.33751958729562, -75.12088391072274]}}, {"type": "Feature", "properties": {"norad_id": 48268, "name": "PLEIADES NEO 3", "group": "resource", "lat": -75.32777126045261, "lon": 79.7774878387813, "alt_km": 632.2509226046677, "timestamp": "2025-12-01T03:58:49.208510+00:00", "meta": {"OBJECT_NAME": "PLEIADES NEO 3", "OBJECT_ID": "2021-034A", "EPOCH": "2025-11-29T05:19:39.129024", "MEAN_MOTION": 14.81672304, "ECCENTRICITY": 0.00012901, "INCLINATION": 97.895, "RA_OF_ASC_NODE": 45.8568, "ARG_OF_PERICENTER": 94.0657, "MEAN_ANOMALY": 266.0704, "EPHEMERIS_TYPE": 0, "CLASSIFICATION_TYPE": "U", "NORAD_CAT_ID": 48268, "ELEMENT_SET_NO": 999, "REV_AT_EPOCH": 24804, "BSTAR": -1.529629e-06, "MEAN_MOTION_DOT": -6.4e-07, "MEAN_MOTION_DDOT": 0, "GROUP": "resource"}, "tle": {"line1": "1 48268U 21034A   25333.22198066 -.00000064  00000+0 -15296-5 0  9997", "line2": "2 48268  97.8950  45.8568 0001290  94.0657 266.0704 14.81672304248046"}}, "geometry": {"type": "Point", "coordinates": [79.7774878387813, -75.32777126045261]}}, {"type": "Feature", "properties": {"norad_id": 49070, "name": "PLEIADES NEO 4", "group": "resource", "lat": 75.19179803453443, "lon": -100.5689514092973, "alt_km": 616.0013328762507, "timestamp": "2025-12-01T03:58:49.208557+00:00", "meta": {"OBJECT_NAME": "PLEIADES NEO 4", "OBJECT_ID": "2021-073E", "EPOCH": "2025-11-30T06:26:57.240384", "MEAN_MOTION": 14.81677347, "ECCENTRICITY": 0.00012823, "INCLINATION": 97.8951, "RA_OF_ASC_NODE": 46.8846, "ARG_OF_PERICENTER": 97.4622, "MEAN_ANOMALY": 262.6737, "EPHEMERIS_TYPE": 0, "CLASSIFICATION_TYPE": "U", "NORAD_CAT_ID": 49070, "ELEMENT_SET_NO": 999, "REV_AT_EPOCH": 23191, "BSTAR": -3.13534e-07, "MEAN_MOTION_DOT": -5.5e-07, "MEAN_MOTION_DDOT": 0, "GROUP": "resource"}, "tle": {"line1": "1 49070U 21073E   25334.26871806 -.00000055  00000+0 -31353-6 0  9990", "line2": "2 49070  97.8951  46.8846 0001282  97.4622 262.6737 14.81677347231917"}}, "geometry": {"type": "Point", "coordinates": [-100.5689514092973, 75.19179803453443]}}, {"type": "Feature", "properties": {"norad_id": 49260, "name": "LANDSAT 9", "group": "resource", "lat": 59.57022244667861, "lon": 29.213836478768112, "alt_km": 696.0544932885286, "timestamp": "2025-12-01T03:58:49.208581+00:00", "meta": {"OBJECT_NAME": "LANDSAT 9", "OBJECT_ID": "2021-088A", "EPOCH": "2025-11-30T17:48:53.392896", "MEAN_MOTION": 14.57109997, "ECCENTRICITY": 0.0001122, "INCLINATION": 98.2108, "RA_OF_ASC_NODE": 43.0263, "ARG_OF_PERICENTER": 92.1822, "MEAN_ANOMALY": 267.9505, "EPHEMERIS_TYPE": 0, "CLASSIFICATION_TYPE": "U", "NORAD_CAT_ID": 49260, "ELEMENT_SET_NO": 999, "REV_AT_EPOCH": 22210, "BSTAR": 0.00011291, "MEAN_MOTION_DOT": 4.63e-06, "MEAN_MOTION_DDOT": 0, "GROUP": "resource"}, "tle": {"line1": "1 49260U 21088A   25334.74228464  .00000463  00000+0  11291-3 0  9993", "line2": "2 49260  98.2108  43.0263 0001122  92.1822 267.9505 14.57109997222102"}}, "geometry": {"type": "Point", "coordinates": [29.213836478768112, 59.57022244667861]}}, {"type": "Feature", "properties": {"norad_id": 51444, "name": "CSG-2", "group": "resource", "lat": 63.792177591083835, "lon": -6.993311052935683, "alt_km": 615.3762827221017, "timestamp": "2025-12-01T03:58:49.208629+00:00", "meta": {"OBJECT_NAME": "CSG-2", "OBJECT_ID": "2022-008A", "EPOCH": "2025-11-30T19:21:43.582752", "MEAN_MOTION": 14.82168505, "ECCENTRICITY": 0.0001464, "INCLINATION": 97.8808, "RA_OF_ASC_NODE": 156.3094, "ARG_OF_PERICENTER": 86.9736, "MEAN_ANOMALY": 273.1645, "EPHEMERIS_TYPE": 0, "CLASSIFICATION_TYPE": "U", "NORAD_CAT_ID": 51444, "ELEMENT_SET_NO": 999, "REV_AT_EPOCH": 20720, "BSTAR": 6.7154e-05, "MEAN_MOTION_DOT": 4.83e-06, "MEAN_MOTION_DDOT": 0, "GROUP": "resource"}, "tle": {"line1": "1 51444U 22008A   25334.80675443  .00000483  00000+0  67154-4 0  9995", "line2": "2 51444  97.8808 156.3094 0001464  86.9736 273.1645 14.82168505207201"}}, "geometry": {"type": "Point", "coordinates": [-6.993311052935683, 63.792177591083835]}}, {"type": "Feature", "properties": {"norad_id": 52912, "name": "GAOFEN-12 03", "group": "resource", "lat": 40.90515191948399, "lon": 49.646094766390114, "alt_km": 626.673264054898, "timestamp": "2025-12-01T03:58:49.208709+00:00", "meta": {"OBJECT_NAME": "GAOFEN-12 03", "OBJECT_ID": "2022-069A", "EPOCH": "2025-11-30T20:51:50.868864", "MEAN_MOTION": 14.79561592, "ECCENTRICITY": 0.0002349, "INCLINATION": 97.8491, "RA_OF_ASC_NODE": 222.4923, "ARG_OF_PERICENTER": 79.014, "MEAN_ANOMALY": 281.1336, "EPHEMERIS_TYPE": 0, "CLASSIFICATION_TYPE": "U", "NORAD_CAT_ID": 52912, "ELEMENT_SET_NO": 999, "REV_AT_EPOCH": 18528, "BSTAR": 0.00017032, "MEAN_MOTION_DOT": 1.224e-05, "MEAN_MOTION_DDOT": 0, "GROUP": "resource"}, "tle": {"line1": "1 52912U 22069A   25334.86933876  .00001224  00000+0  17032-3 0  9999", "line2": "2 52912  97.8491 222.4923 0002349  79.0140 281.1336 14.79561592185289"}}, "geometry": {"type": "Point", "coordinates": [49.646094766390114, 40.90515191948399]}}, {"type": "Feature", "properties": {"norad_id": 54754, "name": "SWOT", "group": "resource", "lat": 6.295602948397736, "lon": 121.22501293461474, "alt_km": 894.9031370039611, "timestamp": "2025-12-01T03:58:49.208815+00:00", "meta": {"OBJECT_NAME": "SWOT", "OBJECT_ID": "2022-173A", "EPOCH": "2025-11-30T20:17:42.343872", "MEAN_MOTION": 14.00171876, "ECCENTRICITY": 2.83e-05, "INCLINATION": 77.6098, "RA_OF_ASC_NODE": 303.0468, "ARG_OF_PERICENTER": 149.6275, "MEAN_ANOMALY": 210.4893, "EPHEMERIS_TYPE": 0, "CLASSIFICATION_TYPE": "U", "NORAD_CAT_ID": 54754, "ELEMENT_SET_NO": 999, "REV_AT_EPOCH": 15139, "BSTAR": 1.878e-05, "MEAN_MOTION_DOT": 2.5e-07, "MEAN_MOTION_DDOT": 0, "GROUP": "resource"}, "tle": {"line1": "1 54754U 22173A   25334.84562898  .00000025  00000+0  18780-4 0  9991", "line2": "2 54754  77.6098 303.0468 0000283 149.6275 210.4893 14.00171876151396"}}, "geometry": {"type": "Point", "coordinates": [121.22501293461474, 6.295602948397736]}}]}